ORBCOMM FM20 [+]        
1 25416U 98046D   23346.90136765  .00000743  00000+0  30947-3 0  9999
2 25416  44.9952 271.2047 0001878 328.2502  31.8231 14.34685227324922
ORBCOMM FM16 [-]        
1 25417U 98046E   23347.09025525  .00001029  00000+0  40348-3 0  9996
2 25417  44.9950 267.0849 0004589  24.9519 335.1549 14.35465047325058
ORBCOMM FM15 [-]        
1 25418U 98046F   23346.88059397  .00000992  00000+0  39245-3 0  9999
2 25418  44.9984 271.7991 0004122  23.0117 337.0914 14.35218404324984
ORBCOMM FM14 [-]        
1 25419U 98046G   23346.94375311  .00001042  00000+0  40898-3 0  9997
2 25419  44.9975 270.7884 0003291   5.8131 117.0275 14.35338475325006
ORBCOMM FM13 [+]        
1 25420U 98046H   23346.89777812  .00000890  00000+0  36052-3 0  9992
2 25420  44.9987 275.1154 0005433  11.4694 348.6275 14.34748856323846
ORBCOMM FM21 [-]        
1 25475U 98053A   23347.12396221  .00000785  00000+0  32403-3 0  9997
2 25475  45.0105 358.1997 0002355 285.2619  74.7967 14.34748071318225
ORBCOMM FM22 [-]        
1 25476U 98053B   23345.96644234  .00000820  00000+0  33346-3 0  9995
2 25476  45.0104   1.4847 0003955 301.3884  58.6577 14.35150503317717
ORBCOMM FM23 [-]        
1 25477U 98053C   23346.94547136  .00000892  00000+0  36149-3 0  9991
2 25477  45.0108   1.4914 0003289 297.3035  62.7477 14.34741449318326
