<?xml version="1.0" encoding="UTF-8"?>
<ndm xmlns:xsi="http://www.w3.org/2001/XMLSchema-instance" xsi:noNamespaceSchemaLocation="https://sanaregistry.org/r/ndmxml_unqualified/ndmxml-2.0.0-master-2.0.xsd">
<omm id="CCSDS_OMM_VERS" version="2.0">
<header><CREATION_DATE/><ORIGINATOR/></header><body><segment><metadata><OBJECT_NAME>ORBCOMM FM20 [+]</OBJECT_NAME><OBJECT_ID>1998-046D</OBJECT_ID><CENTER_NAME>EARTH</CENTER_NAME><REF_FRAME>TEME</REF_FRAME><TIME_SYSTEM>UTC</TIME_SYSTEM><MEAN_ELEMENT_THEORY>SGP4</MEAN_ELEMENT_THEORY></metadata><data><meanElements><EPOCH>2023-12-12T21:37:58.164960</EPOCH><MEAN_MOTION>14.34685227</MEAN_MOTION><ECCENTRICITY>.0001878</ECCENTRICITY><INCLINATION>44.9952</INCLINATION><RA_OF_ASC_NODE>271.2047</RA_OF_ASC_NODE><ARG_OF_PERICENTER>328.2502</ARG_OF_PERICENTER><MEAN_ANOMALY>31.8231</MEAN_ANOMALY></meanElements><tleParameters><EPHEMERIS_TYPE>0</EPHEMERIS_TYPE><CLASSIFICATION_TYPE>U</CLASSIFICATION_TYPE><NORAD_CAT_ID>25416</NORAD_CAT_ID><ELEMENT_SET_NO>999</ELEMENT_SET_NO><REV_AT_EPOCH>32492</REV_AT_EPOCH><BSTAR>.30947E-3</BSTAR><MEAN_MOTION_DOT>.743E-5</MEAN_MOTION_DOT><MEAN_MOTION_DDOT>0</MEAN_MOTION_DDOT></tleParameters></data></segment></body></omm>
<omm id="CCSDS_OMM_VERS" version="2.0">
<header><CREATION_DATE/><ORIGINATOR/></header><body><segment><metadata><OBJECT_NAME>ORBCOMM FM16 [-]</OBJECT_NAME><OBJECT_ID>1998-046E</OBJECT_ID><CENTER_NAME>EARTH</CENTER_NAME><REF_FRAME>TEME</REF_FRAME><TIME_SYSTEM>UTC</TIME_SYSTEM><MEAN_ELEMENT_THEORY>SGP4</MEAN_ELEMENT_THEORY></metadata><data><meanElements><EPOCH>2023-12-13T02:09:58.053600</EPOCH><MEAN_MOTION>14.35465047</MEAN_MOTION><ECCENTRICITY>.0004589</ECCENTRICITY><INCLINATION>44.9950</INCLINATION><RA_OF_ASC_NODE>267.0849</RA_OF_ASC_NODE><ARG_OF_PERICENTER>24.9519</ARG_OF_PERICENTER><MEAN_ANOMALY>335.1549</MEAN_ANOMALY></meanElements><tleParameters><EPHEMERIS_TYPE>0</EPHEMERIS_TYPE><CLASSIFICATION_TYPE>U</CLASSIFICATION_TYPE><NORAD_CAT_ID>25417</NORAD_CAT_ID><ELEMENT_SET_NO>999</ELEMENT_SET_NO><REV_AT_EPOCH>32505</REV_AT_EPOCH><BSTAR>.40348E-3</BSTAR><MEAN_MOTION_DOT>.1029E-4</MEAN_MOTION_DOT><MEAN_MOTION_DDOT>0</MEAN_MOTION_DDOT></tleParameters></data></segment></body></omm>
<omm id="CCSDS_OMM_VERS" version="2.0">
<header><CREATION_DATE/><ORIGINATOR/></header><body><segment><metadata><OBJECT_NAME>ORBCOMM FM15 [-]</OBJECT_NAME><OBJECT_ID>1998-046F</OBJECT_ID><CENTER_NAME>EARTH</CENTER_NAME><REF_FRAME>TEME</REF_FRAME><TIME_SYSTEM>UTC</TIME_SYSTEM><MEAN_ELEMENT_THEORY>SGP4</MEAN_ELEMENT_THEORY></metadata><data><meanElements><EPOCH>2023-12-12T21:08:03.319008</EPOCH><MEAN_MOTION>14.35218404</MEAN_MOTION><ECCENTRICITY>.0004122</ECCENTRICITY><INCLINATION>44.9984</INCLINATION><RA_OF_ASC_NODE>271.7991</RA_OF_ASC_NODE><ARG_OF_PERICENTER>23.0117</ARG_OF_PERICENTER><MEAN_ANOMALY>337.0914</MEAN_ANOMALY></meanElements><tleParameters><EPHEMERIS_TYPE>0</EPHEMERIS_TYPE><CLASSIFICATION_TYPE>U</CLASSIFICATION_TYPE><NORAD_CAT_ID>25418</NORAD_CAT_ID><ELEMENT_SET_NO>999</ELEMENT_SET_NO><REV_AT_EPOCH>32498</REV_AT_EPOCH><BSTAR>.39245E-3</BSTAR><MEAN_MOTION_DOT>.992E-5</MEAN_MOTION_DOT><MEAN_MOTION_DDOT>0</MEAN_MOTION_DDOT></tleParameters></data></segment></body></omm>
<omm id="CCSDS_OMM_VERS" version="2.0">
<header><CREATION_DATE/><ORIGINATOR/></header><body><segment><metadata><OBJECT_NAME>ORBCOMM FM14 [-]</OBJECT_NAME><OBJECT_ID>1998-046G</OBJECT_ID><CENTER_NAME>EARTH</CENTER_NAME><REF_FRAME>TEME</REF_FRAME><TIME_SYSTEM>UTC</TIME_SYSTEM><MEAN_ELEMENT_THEORY>SGP4</MEAN_ELEMENT_THEORY></metadata><data><meanElements><EPOCH>2023-12-12T22:39:00.268704</EPOCH><MEAN_MOTION>14.35338475</MEAN_MOTION><ECCENTRICITY>.0003291</ECCENTRICITY><INCLINATION>44.9975</INCLINATION><RA_OF_ASC_NODE>270.7884</RA_OF_ASC_NODE><ARG_OF_PERICENTER>5.8131</ARG_OF_PERICENTER><MEAN_ANOMALY>117.0275</MEAN_ANOMALY></meanElements><tleParameters><EPHEMERIS_TYPE>0</EPHEMERIS_TYPE><CLASSIFICATION_TYPE>U</CLASSIFICATION_TYPE><NORAD_CAT_ID>25419</NORAD_CAT_ID><ELEMENT_SET_NO>999</ELEMENT_SET_NO><REV_AT_EPOCH>32500</REV_AT_EPOCH><BSTAR>.40898E-3</BSTAR><MEAN_MOTION_DOT>.1042E-4</MEAN_MOTION_DOT><MEAN_MOTION_DDOT>0</MEAN_MOTION_DDOT></tleParameters></data></segment></body></omm>
<omm id="CCSDS_OMM_VERS" version="2.0">
<header><CREATION_DATE/><ORIGINATOR/></header><body><segment><metadata><OBJECT_NAME>ORBCOMM FM13 [+]</OBJECT_NAME><OBJECT_ID>1998-046H</OBJECT_ID><CENTER_NAME>EARTH</CENTER_NAME><REF_FRAME>TEME</REF_FRAME><TIME_SYSTEM>UTC</TIME_SYSTEM><MEAN_ELEMENT_THEORY>SGP4</MEAN_ELEMENT_THEORY></metadata><data><meanElements><EPOCH>2023-12-12T21:32:48.029568</EPOCH><MEAN_MOTION>14.34748856</MEAN_MOTION><ECCENTRICITY>.0005433</ECCENTRICITY><INCLINATION>44.9987</INCLINATION><RA_OF_ASC_NODE>275.1154</RA_OF_ASC_NODE><ARG_OF_PERICENTER>11.4694</ARG_OF_PERICENTER><MEAN_ANOMALY>348.6275</MEAN_ANOMALY></meanElements><tleParameters><EPHEMERIS_TYPE>0</EPHEMERIS_TYPE><CLASSIFICATION_TYPE>U</CLASSIFICATION_TYPE><NORAD_CAT_ID>25420</NORAD_CAT_ID><ELEMENT_SET_NO>999</ELEMENT_SET_NO><REV_AT_EPOCH>32384</REV_AT_EPOCH><BSTAR>.36052E-3</BSTAR><MEAN_MOTION_DOT>.89E-5</MEAN_MOTION_DOT><MEAN_MOTION_DDOT>0</MEAN_MOTION_DDOT></tleParameters></data></segment></body></omm>
<omm id="CCSDS_OMM_VERS" version="2.0">
<header><CREATION_DATE/><ORIGINATOR/></header><body><segment><metadata><OBJECT_NAME>ORBCOMM FM21 [-]</OBJECT_NAME><OBJECT_ID>1998-053A</OBJECT_ID><CENTER_NAME>EARTH</CENTER_NAME><REF_FRAME>TEME</REF_FRAME><TIME_SYSTEM>UTC</TIME_SYSTEM><MEAN_ELEMENT_THEORY>SGP4</MEAN_ELEMENT_THEORY></metadata><data><meanElements><EPOCH>2023-12-13T02:58:30.334944</EPOCH><MEAN_MOTION>14.34748071</MEAN_MOTION><ECCENTRICITY>.0002355</ECCENTRICITY><INCLINATION>45.0105</INCLINATION><RA_OF_ASC_NODE>358.1997</RA_OF_ASC_NODE><ARG_OF_PERICENTER>285.2619</ARG_OF_PERICENTER><MEAN_ANOMALY>74.7967</MEAN_ANOMALY></meanElements><tleParameters><EPHEMERIS_TYPE>0</EPHEMERIS_TYPE><CLASSIFICATION_TYPE>U</CLASSIFICATION_TYPE><NORAD_CAT_ID>25475</NORAD_CAT_ID><ELEMENT_SET_NO>999</ELEMENT_SET_NO><REV_AT_EPOCH>31822</REV_AT_EPOCH><BSTAR>.32403E-3</BSTAR><MEAN_MOTION_DOT>.785E-5</MEAN_MOTION_DOT><MEAN_MOTION_DDOT>0</MEAN_MOTION_DDOT></tleParameters></data></segment></body></omm>
<omm id="CCSDS_OMM_VERS" version="2.0">
<header><CREATION_DATE/><ORIGINATOR/></header><body><segment><metadata><OBJECT_NAME>ORBCOMM FM22 [-]</OBJECT_NAME><OBJECT_ID>1998-053B</OBJECT_ID><CENTER_NAME>EARTH</CENTER_NAME><REF_FRAME>TEME</REF_FRAME><TIME_SYSTEM>UTC</TIME_SYSTEM><MEAN_ELEMENT_THEORY>SGP4</MEAN_ELEMENT_THEORY></metadata><data><meanElements><EPOCH>2023-12-11T23:11:40.618176</EPOCH><MEAN_MOTION>14.35150503</MEAN_MOTION><ECCENTRICITY>.0003955</ECCENTRICITY><INCLINATION>45.0104</INCLINATION><RA_OF_ASC_NODE>1.4847</RA_OF_ASC_NODE><ARG_OF_PERICENTER>301.3884</ARG_OF_PERICENTER><MEAN_ANOMALY>58.6577</MEAN_ANOMALY></meanElements><tleParameters><EPHEMERIS_TYPE>0</EPHEMERIS_TYPE><CLASSIFICATION_TYPE>U</CLASSIFICATION_TYPE><NORAD_CAT_ID>25476</NORAD_CAT_ID><ELEMENT_SET_NO>999</ELEMENT_SET_NO><REV_AT_EPOCH>31771</REV_AT_EPOCH><BSTAR>.33346E-3</BSTAR><MEAN_MOTION_DOT>.82E-5</MEAN_MOTION_DOT><MEAN_MOTION_DDOT>0</MEAN_MOTION_DDOT></tleParameters></data></segment></body></omm>
<omm id="CCSDS_OMM_VERS" version="2.0">
<header><CREATION_DATE/><ORIGINATOR/></header><body><segment><metadata><OBJECT_NAME>ORBCOMM FM23 [-]</OBJECT_NAME><OBJECT_ID>1998-053C</OBJECT_ID><CENTER_NAME>EARTH</CENTER_NAME><REF_FRAME>TEME</REF_FRAME><TIME_SYSTEM>UTC</TIME_SYSTEM><MEAN_ELEMENT_THEORY>SGP4</MEAN_ELEMENT_THEORY></metadata><data><meanElements><EPOCH>2023-12-12T22:41:28.725504</EPOCH><MEAN_MOTION>14.34741449</MEAN_MOTION><ECCENTRICITY>.0003289</ECCENTRICITY><INCLINATION>45.0108</INCLINATION><RA_OF_ASC_NODE>1.4914</RA_OF_ASC_NODE><ARG_OF_PERICENTER>297.3035</ARG_OF_PERICENTER><MEAN_ANOMALY>62.7477</MEAN_ANOMALY></meanElements><tleParameters><EPHEMERIS_TYPE>0</EPHEMERIS_TYPE><CLASSIFICATION_TYPE>U</CLASSIFICATION_TYPE><NORAD_CAT_ID>25477</NORAD_CAT_ID><ELEMENT_SET_NO>999</ELEMENT_SET_NO><REV_AT_EPOCH>31832</REV_AT_EPOCH><BSTAR>.36149E-3</BSTAR><MEAN_MOTION_DOT>.892E-5</MEAN_MOTION_DOT><MEAN_MOTION_DDOT>0</MEAN_MOTION_DDOT></tleParameters></data></segment></body></omm>

</ndm>
